{
  "type": "FeatureCollection",
  "features": [
    {
      "type": "Feature",
      "properties": {
        "norad_id": 30022,
        "name": "FENGYUN 1C DEB",
        "group": "fengyun-1c-debris",
        "lat": 68.39506157964468,
        "lon": 36.31982959385933,
        "alt_km": 854.5645960811107,
        "timestamp": "2025-12-10T11:33:53.658626+00:00",
        "meta_object_name": "FENGYUN 1C DEB",
        "meta_object_id": "1999-025MX",
        "meta_epoch": "2025-12-10T01:38:25.465056",
        "meta_mean_motion": 14.23130959,
        "meta_eccentricity": 0.0066582,
        "meta_inclination": 99.0723,
        "meta_ra_of_asc_node": 192.0994,
        "meta_arg_of_pericenter": 276.9026,
        "meta_mean_anomaly": 235.5399,
        "meta_ephemeris_type": 0,
        "meta_classification_type": "U",
        "meta_norad_cat_id": 30022,
        "meta_element_set_no": 999,
        "meta_rev_at_epoch": 98154,
        "meta_bstar": 0.00011312,
        "meta_mean_motion_dot": 2.13e-06,
        "meta_mean_motion_ddot": 0,
        "tle_line1": "1 30022U 99025MX  25344.06835029  .00000213  00000+0  11312-3 0  9999",
        "tle_line2": "2 30022  99.0723 192.0994 0066582 276.9026 235.5399 14.23130959981542"
      },
      "geometry": {
        "type": "Point",
        "coordinates": [
          36.31982959385933,
          68.39506157964468
        ]
      }
    },
    {
      "type": "Feature",
      "properties": {
        "norad_id": 30023,
        "name": "FENGYUN 1C DEB",
        "group": "fengyun-1c-debris",
        "lat": 47.337660242903596,
        "lon": 8.197120047420212,
        "alt_km": 832.5959169365487,
        "timestamp": "2025-12-10T11:33:53.658636+00:00",
        "meta_object_name": "FENGYUN 1C DEB",
        "meta_object_id": "1999-025MY",
        "meta_epoch": "2025-12-10T01:19:38.479872",
        "meta_mean_motion": 14.11856617,
        "meta_eccentricity": 0.0047193,
        "meta_inclination": 99.294,
        "meta_ra_of_asc_node": 177.5201,
        "meta_arg_of_pericenter": 70.9757,
        "meta_mean_anomaly": 53.4005,
        "meta_ephemeris_type": 0,
        "meta_classification_type": "U",
        "meta_norad_cat_id": 30023,
        "meta_element_set_no": 999,
        "meta_rev_at_epoch": 97158,
        "meta_bstar": 0.00057588,
        "meta_mean_motion_dot": 1.015e-05,
        "meta_mean_motion_ddot": 0,
        "tle_line1": "1 30023U 99025MY  25344.05530648  .00001015  00000+0  57588-3 0  9994",
        "tle_line2": "2 30023  99.2940 177.5201 0047193  70.9757  53.4005 14.11856617971582"
      },
      "geometry": {
        "type": "Point",
        "coordinates": [
          8.197120047420212,
          47.337660242903596
        ]
      }
    },
    {
      "type": "Feature",
      "properties": {
        "norad_id": 30028,
        "name": "FENGYUN 1C DEB",
        "group": "fengyun-1c-debris",
        "lat": 53.645945874164326,
        "lon": -34.460920774487874,
        "alt_km": 826.180293313073,
        "timestamp": "2025-12-10T11:33:53.658646+00:00",
        "meta_object_name": "FENGYUN 1C DEB",
        "meta_object_id": "1999-025ND",
        "meta_epoch": "2025-12-09T12:47:40.228800",
        "meta_mean_motion": 14.55469636,
        "meta_eccentricity": 0.01741767,
        "meta_inclination": 98.1455,
        "meta_ra_of_asc_node": 335.8342,
        "meta_arg_of_pericenter": 238.3669,
        "meta_mean_anomaly": 247.7999,
        "meta_ephemeris_type": 0,
        "meta_classification_type": "U",
        "meta_norad_cat_id": 30028,
        "meta_element_set_no": 999,
        "meta_rev_at_epoch": 99675,
        "meta_bstar": 0.00068513066,
        "meta_mean_motion_dot": 3.603e-05,
        "meta_mean_motion_ddot": 0,
        "tle_line1": "1 30028U 99025ND  25343.53310450  .00003603  00000+0  68513-3 0  9993",
        "tle_line2": "2 30028  98.1455 335.8342 0174176 238.3669 247.7999 14.55469636996750"
      },
      "geometry": {
        "type": "Point",
        "coordinates": [
          -34.460920774487874,
          53.645945874164326
        ]
      }
    },
    {
      "type": "Feature",
      "properties": {
        "norad_id": 30035,
        "name": "FENGYUN 1C DEB",
        "group": "fengyun-1c-debris",
        "lat": 13.224779897930715,
        "lon": -103.07888737094724,
        "alt_km": 721.4333125813064,
        "timestamp": "2025-12-10T11:33:53.658656+00:00",
        "meta_object_name": "FENGYUN 1C DEB",
        "meta_object_id": "1999-025NL",
        "meta_epoch": "2025-12-09T17:15:43.130880",
        "meta_mean_motion": 14.36972572,
        "meta_eccentricity": 0.0115632,
        "meta_inclination": 99.2706,
        "meta_ra_of_asc_node": 258.2999,
        "meta_arg_of_pericenter": 70.6632,
        "meta_mean_anomaly": 321.0317,
        "meta_ephemeris_type": 0,
        "meta_classification_type": "U",
        "meta_norad_cat_id": 30035,
        "meta_element_set_no": 999,
        "meta_rev_at_epoch": 99080,
        "meta_bstar": 0.00013064,
        "meta_mean_motion_dot": 3.65e-06,
        "meta_mean_motion_ddot": 0,
        "tle_line1": "1 30035U 99025NL  25343.71924920  .00000365  00000+0  13064-3 0  9997",
        "tle_line2": "2 30035  99.2706 258.2999 0115632  70.6632 321.0317 14.36972572990801"
      },
      "geometry": {
        "type": "Point",
        "coordinates": [
          -103.07888737094724,
          13.224779897930715
        ]
      }
    },
    {
      "type": "Feature",
      "properties": {
        "norad_id": 30036,
        "name": "FENGYUN 1C DEB",
        "group": "fengyun-1c-debris",
        "lat": 31.134103673719633,
        "lon": 6.606861216991099,
        "alt_km": 871.4017516767717,
        "timestamp": "2025-12-10T11:33:53.658666+00:00",
        "meta_object_name": "FENGYUN 1C DEB",
        "meta_object_id": "1999-025NM",
        "meta_epoch": "2025-12-10T01:45:50.088960",
        "meta_mean_motion": 14.46165269,
        "meta_eccentricity": 0.0189839,
        "meta_inclination": 98.2528,
        "meta_ra_of_asc_node": 11.2387,
        "meta_arg_of_pericenter": 215.7591,
        "meta_mean_anomaly": 210.8857,
        "meta_ephemeris_type": 0,
        "meta_classification_type": "U",
        "meta_norad_cat_id": 30036,
        "meta_element_set_no": 999,
        "meta_rev_at_epoch": 99138,
        "meta_bstar": 0.00060713,
        "meta_mean_motion_dot": 2.663e-05,
        "meta_mean_motion_ddot": 0,
        "tle_line1": "1 30036U 99025NM  25344.07349640  .00002663  00000+0  60713-3 0  9994",
        "tle_line2": "2 30036  98.2528  11.2387 0189839 215.7591 210.8857 14.46165269991383"
      },
      "geometry": {
        "type": "Point",
        "coordinates": [
          6.606861216991099,
          31.134103673719633
        ]
      }
    },
    {
      "type": "Feature",
      "properties": {
        "norad_id": 30037,
        "name": "FENGYUN 1C DEB",
        "group": "fengyun-1c-debris",
        "lat": 14.135383009320106,
        "lon": 142.39474380863155,
        "alt_km": 806.7727548205039,
        "timestamp": "2025-12-10T11:33:53.658676+00:00",
        "meta_object_name": "FENGYUN 1C DEB",
        "meta_object_id": "1999-025NN",
        "meta_epoch": "2025-12-09T10:22:55.253280",
        "meta_mean_motion": 14.34111274,
        "meta_eccentricity": 0.01745574,
        "meta_inclination": 98.3831,
        "meta_ra_of_asc_node": 319.2486,
        "meta_arg_of_pericenter": 64.8781,
        "meta_mean_anomaly": 84.6299,
        "meta_ephemeris_type": 0,
        "meta_classification_type": "U",
        "meta_norad_cat_id": 30037,
        "meta_element_set_no": 999,
        "meta_rev_at_epoch": 98740,
        "meta_bstar": 0.00035366107,
        "meta_mean_motion_dot": 1.128e-05,
        "meta_mean_motion_ddot": 0,
        "tle_line1": "1 30037U 99025NN  25343.43258395  .00001128  00000+0  35366-3 0  9991",
        "tle_line2": "2 30037  98.3831 319.2486 0174557  64.8781  84.6299 14.34111274987407"
      },
      "geometry": {
        "type": "Point",
        "coordinates": [
          142.39474380863155,
          14.135383009320106
        ]
      }
    },
    {
      "type": "Feature",
      "properties": {
        "norad_id": 30038,
        "name": "FENGYUN 1C DEB",
        "group": "fengyun-1c-debris",
        "lat": 24.932208296719132,
        "lon": 156.08585264603227,
        "alt_km": 627.7896348398135,
        "timestamp": "2025-12-10T11:33:53.658686+00:00",
        "meta_object_name": "FENGYUN 1C DEB",
        "meta_object_id": "1999-025NP",
        "meta_epoch": "2025-12-09T16:55:20.326368",
        "meta_mean_motion": 14.39285393,
        "meta_eccentricity": 0.0257974,
        "meta_inclination": 98.3681,
        "meta_ra_of_asc_node": 331.4032,
        "meta_arg_of_pericenter": 111.8869,
        "meta_mean_anomaly": 338.253,
        "meta_ephemeris_type": 0,
        "meta_classification_type": "U",
        "meta_norad_cat_id": 30038,
        "meta_element_set_no": 999,
        "meta_rev_at_epoch": 98847,
        "meta_bstar": 0.00034481,
        "meta_mean_motion_dot": 1.532e-05,
        "meta_mean_motion_ddot": 0,
        "tle_line1": "1 30038U 99025NP  25343.70509637  .00001532  00000+0  34481-3 0  9996",
        "tle_line2": "2 30038  98.3681 331.4032 0257974 111.8869 338.2530 14.39285393988472"
      },
      "geometry": {
        "type": "Point",
        "coordinates": [
          156.08585264603227,
          24.932208296719132
        ]
      }
    }
  ]
}